,Name,address,city,state,zip,website,facebook,manager_name,email,phone,MarketName,stateFIPS,CSA_ID
0,Greensgrow Farms,2503 E. Firth Street,Philadelphia,Pennsylvania,19125,http://www.greensgrow.org,https://www.facebook.com/Greensgrow-Farms-66323974768/,Katie Jacoby,csa@greensgrow.org,215-380-4355,15.3 Greensgrow Farms,42,3003884
1,West Philly Foods CSA,4548 Market St.,Philadelphia,Pennsylvania,19139,http://westphillyfoods.com/,,Allison Blansfield,ablansfield@theenterprisecenter.com,215-895-4050,15.8 West Philly Foods CSA,42,3003853
2,Phoenix Farms,,Bensalem,Pennsylvania,19020,www.phoenixfarms.us,https://www.facebook.com/thephoenixfarm,G Burnard,thephoenixfarms@gmail.com,323-940-FARM,15.9 Phoenix Farms,42,3005706
3,Phoenix Farms,150 Trenton Ave,Hulmeville,Pennsylvania,19047,www.phoenixfarms.us,http://facebook.com/thephoenixfarm,Guin,thephoenixfarms@gmail.com,3239403276,15.9 Phoenix Farms,42,3010755
4,Charlestown Farm,2565 Charlestown Road,Phoenixville,Pennsylvania,19460,www.charlestownfarm.org,https://www.facebook.com/Charlestown-Farm-307141529297581/,Elizabeth Andersen,broadwaterfarm@gmail.com,6102479901,18.8 Charlestown Farm,42,3005747
5,Sankanac CSA,1852 French Creek Road,phoenixville,Pennsylvania,19460,sankanaccsa.com,https://www.facebook.com/sankanac,Erin Throop,sankanaccsa@gmail.com,6104957295,18.8 Sankanac CSA,42,3010770
6,"Sandbrook Meadow Farm, LLC",51 Sandbrook Headquarters Rd,Stockton,New Jersey,8559,sandbrookmeadowfarm.com,https://www.facebook.com/sandbrookmeadowfarm/,Alex Sawatzky,info@sandbrookmeadowfarm.com,908-782-0074,"21.4 Sandbrook Meadow Farm, LLC",34,3011809
7,"Yellow Springs Farm, LLC",1165 Yellow Springs Rd,Chester Springs,Pennsylvania,19425,www.yellowspringsfarm.com,,Catherine and Al Renzi,catherine@yellowspringsfarm.com,610-827-2014,"23.8 Yellow Springs Farm, LLC",42,3004073
8,Chickadee Creek Farm,,Pennington,New Jersey,8534,www.chickadeecreekfarm.com,https://www.facebook.com/pages/Chickadee-Creek-Farm/123743710983912,Jess Niederer,chickadeecreekfarm@gmail.com,609-462-3854,24.8 Chickadee Creek Farm,34,3002756
9,Honey Brook Organic Farm ,260 Wargo Rd,Pennington,New Jersey,8534,http://www.honeybrookorganicfarm.com,https://www.facebook.com/pages/Honey-Brook-Organic-Farm/208582679173826?ref=hl,James Kinsel,service@honeybrookorganicfarm.com,609-737-8899,24.8 Honey Brook Organic Farm ,34,3002780
10,Thornbury Farm CSA,1256 Thornbury Road,West Chester PA,Pennsylvania,19382,,https://www.facebook.com/pages/Thornbury-Farm-CSA,Randell Spackman,RSpackman1709@aol.com,610-793-2933,26.9 Thornbury Farm CSA,42,3004045
11,Ralston Farm,325 Hopewell Amwell Rd,Hopewell borough,New Jersey,8525,ralstonfarm.com,https://www.facebook.com/ralstonfarm,Bennett Haynes,bennett.haynes@gmail.com,908-334-8018,26.9 Ralston Farm,34,3002802
12,Z Food Farm,3501 Princeton Pike,Lawrenceville,New Jersey,8648,http://www.zfoodfarm.com,https://www.facebook.com/zfoodfarm,David Zaback,zfoodfarm@gmail.com,609-610-4909,27.4 Z Food Farm,34,3002835
13,Kneehigh Farm,5854 Vera Cruz Rd,Emmaus,Pennsylvania,18049,http://kneehighfarm.com/,https://www.facebook.com/kneehighfarmCSA,Emma Cunniff,kneehighfarm@gmail.com,831.331.7086,28.5 Kneehigh Farm,42,3005519
14,Hand Picked Farm CSA,9 Stacey Road,Raritan Township,New Jersey,8822,www.handpickedfarm.com,https://www.facebook.com/HandPickedFarm/,Matt Hand,matt@handpickedfarm.com,908447-0267,29.4 Hand Picked Farm CSA,34,3005731
15,Adragone Aeroponics,3140 Conestoga Road,Glenmoore,Pennsylvania,19343,https://www.adragonegrows.com/,https://www.facebook.com/pg/AdragoneAeroponics,Jody Spangler,adragoneaeroponics@gmail.com,484-228-1979,29.5 Adragone Aeroponics,42,3011847
16,Highland Orchards Farm Market,1431 Foulk Rd,Wilmington,Delaware,19803,www.highlandorchardsfarmmarket.com,https://www.facebook.com/highlandorchards,Elizabeth,highlandcsa@gmail.com,302-478-4042,32.4 Highland Orchards Farm Market,10,3005678
17,Vollmecke Orchards & CSA,155 Cedar Knoll Road,Coatesville,Pennsylvania,19320,www.csachestercounty.com,https://www.facebook.com/Vollmecke-Orchards-CSA-163217940394207/?ref=hl,Karen Vollmecke,farm@csachestercounty.com,6103834616,35.0 Vollmecke Orchards & CSA,42,3011877
18,Witchwood farms llc,124 cemetery hill road,Washington township ,New Jersey,7882,,Witchwood farms llc,Bob Hill,Witchwoodfarms@gmail.com,862 812-2967,40.7 Witchwood farms llc,34,3005607
19,North Star Orchard,3226 Limestone Rd.,Cochranville,Pennsylvania,19330,http://northstarorchard.com/,https://www.facebook.com/pages/North-Star-Orchard,Lisa Kerschner,Lisa@northstarorchard.com,6105930314,42.9 North Star Orchard,42,3005685
20,Adragone Aeroponics,5541 Old Philadelphia Pike,Gap ,Pennsylvania,17527,http://adragonegrows.com,https://www.facebook.com/AdragoneAeroponics/,Jody Spangler,adragoneaeroponics@gmail.com,484-228-1979,43.3 Adragone Aeroponics,42,3011806
21,Wimer's Organics,258 Spring Grove Rd,East Earl,Pennsylvania,17519,http://www.wimersorganics.com,https://www.facebook.com/pages/Wimers-Organics/155227504658951,Bud Wimer,wimersorganics@gmail.com,717-208-2098,43.4 Wimer's Organics,42,3004067
22,Taproot Farm,66 Kemmerer Rd,Shoemakersville,Pennsylvania,19555,http://www.taprootfarmcsa.com/,https://www.facebook.com/taproot.farm.1,Ola Creston,taprootfarm@gmail.com,610.926.1134,44.7 Taproot Farm,42,3005468
23,Rutgers Gardens Student Farm CSA ,112 Ryders Lane ,New Brunswick ,New Jersey,8901,http://agriurban.rutgers.edu/StudentSustainableFarm.html,https://www.facebook.com/RutgersStudentFarm/,Alex Sawatzky,alex.s@rutgers.edu,732-932-8451,45.0 Rutgers Gardens Student Farm CSA ,34,3011905
24,Silver Forge Farm,112 Iron Ore Road,Manalapan,New Jersey,7726,http://silverforgefarm.com/,https://www.facebook.com/silverforgefarm/,Eliezer Silver,silverforgefarm@gmail.com,732-693-0498,45.0 Silver Forge Farm,34,3011807
25,Uncle Bill's Farm,580 Spook Hollow Rd,Far Hills,New Jersey,7931,www.unclebillsfarm.org,https://www.facebook.com/UncleBillsFarm,Sarah Carden,info@unclebillsfarm.org,9738659459,46.1 Uncle Bill's Farm,34,3002827
26,Windsong Farm,,Warren Township,New Jersey,7059,http://www.windsongorganicfarm.com/,https://www.facebook.com/windsongorganicfarm,Diane Skoss,info@windsongorganicfarm.com,908-464-2070,47.7 Windsong Farm,34,3005606
27,School Lunch Organic Farm & CSA,69 Stephens State Park Road,Hackettstown,New Jersey,7840,,https://www.facebook.com/SchoolLunchFarm,Margaret Noon,margaretmnoon@gmail.com,908-451-0051,49.7 School Lunch Organic Farm & CSA,34,3002808
28,Highlands Harvest Club CSA,1 Alstede Farms Lane,Chester,New Jersey,7930,www.alstedefarms.com,https://www.facebook.com/AlstedeFarms,Trish Cirelli,trish@Alstedefarms.com,908-879-7189,50.1 Highlands Harvest Club CSA,34,3005509
29,Fair Weather Farm at Fairhill,5727 Telegraph Road,Elkton,Maryland,21921,organiceducationfarm.org,https://www.facebook.com/fairweatherfarmfairhill,Nancy Bentley,fairweatherfarmfairhill@gmail.com,302-530-7028,51.8 Fair Weather Farm at Fairhill,24,3001565
30,Community Supported Garden at Genesis Farm,41B Silver Lake Rd.,Blairstown,New Jersey,7825,http://www.csgatgenesisfarm.com,https://www.facebook.com/CSGatGenesisFarm,Smadar English,csgardeninfo@gmail.com,908-362-7486,56.3 Community Supported Garden at Genesis Farm,34,3002758
31,Flying Plow Farm CSA,96 Charles Johnson Farm Lane,Rising Sun,Maryland,21911,http://www.flyingplowfarm.com,https://www.facebook.com/FlyingPlowFarm,Tom and Sarah,flyingplowfarm@gmail.com,443-686-9786,56.5 Flying Plow Farm CSA,24,3001572
32,Homefields Farm,150 Letort Road,Millersville,Pennsylvania,17551,https://www.homefields.org/,https://www.facebook.com/www.homefields.org/,Katie Landis,farmer@homefields.org,7178713110,62.3 Homefields Farm,42,3011876
33,Creekside Farm Market LLC,1436 Mount Joy Rd,Manheim,Pennsylvania,17545,http://www.thecreeksidemarket.com/csa/,https://www.facebook.com/CreeksideFarmMarket,Josh Heller,josh@hellersmarket.com,717-940-5440,63.6 Creekside Farm Market LLC,42,3005604
34,Priapi Gardens,5996 Augustine Herman Hwy.,Cecilton,Maryland,21913,www.priapigardens.com,https://www.facebook.com/pages/PRIAPI-GARDENS-Fine-Plants-For-Your-Home-And-Gardens/266920584238,Victor Priapi,vic@priapigardens.com,410-275-9438,63.9 Priapi Gardens,24,3005386
35,Greater Newark Conservancy,32 Prince St,Newark ,New Jersey,7103,www.citybloom.org,www.facebook.com/greaternewarkconservancy,Hannah Caswell,jv@citybloom.org,9736424646 ext. 25,65.2 Greater Newark Conservancy,34,3005669
36,Colchester Farm Community Supported Agriculture,P.O. Box 191,Georgetown,Maryland,21930,http://colchesterfarm.org/,https://www.facebook.com/pages/Colchester-Farm-Community-Supported-Agriculture/72282200070,Theresa Mycek,manager@colchesterfarm.org,,67.4 Colchester Farm Community Supported Agriculture,24,3005383
37,Peddler Farms C.S.A. & Buyers Club,830 Washington Ave,Woodbine,New Jersey,8270,830 Washington Ave,@peddlerhomestead,Patrick M Keenan,Thegardenpeddler@gmail.com,7327032382,68.0 Peddler Farms C.S.A. & Buyers Club,34,3012928
38,Joy B's Farm CSA & Cooperatives,"77 Orchard Drive, P.O. Box 254",Towaco,New Jersey,7082,,,"Joy B's Farm, CSA & Cooperatives",stewardsffsafety@yahoo.com,973 334-3331,68.1 Joy B's Farm CSA & Cooperatives,34,3005551
39,Colchester Farm CSA,31285 Georgetown Cemetery Road,Galena,Maryland,21635,http://www.colchesterfarm.org,https://www.facebook.com/pages/Colchester-Farm-Community-Supported-Agriculture/7228220007,Theresa Mycek,manager@colchesterfarm.org,443-282-1409,68.7 Colchester Farm CSA,24,3001547
40,Fulton Stall Market CSA,91 South St.,New York ,New York,10038,www.fultonstallmarket.org,,Bob Lewis,info@fultonstallmarket.org,2123401380,72.5 Fulton Stall Market CSA,36,3011895
41,Fulton Stall Market CSA,91 South St.,New York ,New York,10038,fultonstallmarket.org,fultonmarketnyc,Bob Lewis,info@fultonstallmarket.org,9172316071,72.5 Fulton Stall Market CSA,36,3012968
42,Wilson's Farm Market,2838 Forge Hill Road,Bel Air,Maryland,21015,www.wilsonfarmmarket.net,https://www.facebook.com/wilsonsfarmmarket,Janelle Vane,wilsonsfarmmarket@verizon.net,443-504-3656,73.1 Wilson's Farm Market,24,3005504
43,Prospect Lefferts Gardens CSA,"Maple Street School, 21 Lincoln Road",Brooklyn,New York,11225,http://www.plgcsa.org,http://www.facebook.com/plgcsa,Karen Oh,board@plgcsa.org,347-823-1076,73.4 Prospect Lefferts Gardens CSA,36,3003191
44,Prince George-Norwich Meadows Farm CSA,14 E 28th Street,New York,New York,10016,http://princegeorgecsa.com/,https://www.facebook.com/groups/220446108029083/,Lauren Jung,ljung@commonground.org,212-471-0857,75.0 Prince George-Norwich Meadows Farm CSA,36,3005635
45,Prescott's Patch,2338 River Road,Bainbridge,Pennsylvania,17502,,,Steve Prescott,prescotts.patch@gmail.com,717-975-7417,76.6 Prescott's Patch,42,3003978
46,Carnegie Hill CSA,1085 Fifth Avenue ,New York,New York,10128,http://carnegiehillcsa.org/,https://www.facebook.com/carnegiehillcsa,Core Group,info90csa@gmail.com,6465245439,77.6 Carnegie Hill CSA,36,3012950
47,Fifer' 'Delmarva Box' CSA,1919 Allabands Mill Road,Camden-Wyoming,Delaware,19934,http://www.fiferorchards.com/,https://www.facebook.com/fiferorchards,Mike Fennemore,michael@fiferorchards.com,302-697-2141,78.1 Fifer' 'Delmarva Box' CSA,10,3000561
48,One Straw Farm LLC,19718 Kirkwood Shop Rd,White Hall,Maryland,21161,http://www.onestrawfarm.com,https://www.facebook.com/pages/One-Straw-Farm/83496713537,Joan and Drew Norman,joan@onestrawfarm.com,410-357-9857,81.4 One Straw Farm LLC,24,3001606
49,Gib's Farm,251 Campbell Road,Catawissa,Pennsylvania,17820,,https://www.facebook.com/gibsfarm,Gibby Knoebel,gibsfarm@gmail.com,570-486-3006,83.4 Gib's Farm,42,3003864
50,Little Gunpowder Farm,17028 Old York Rd.,Monkton,Maryland,21111,www.littlegunpowderfarm. com,https://www.facebook.com/littlegunpowderfarm,Christy Ottinger,farmers@littlegunpowderfarm.com,4348820079,85.1 Little Gunpowder Farm,24,3001596
51,Full Circle Farm,920 Bird River Beach Rd.,Baltimore,Maryland,21220,920 Bird River Beach Rd.,www.facebook.com/fullcirclefarmllc,Danny,Danny@fullcirclefarmllc.com,4439120794,86.8 Full Circle Farm,24,3011870
52,Oak Spring Farm,20633 Mt. Zion Rd,Freeland,Maryland,21053,www.oakspring-farm.com,Oak Spring Farm,Lisa Duff,lisa.oakspringfarm@gmail.com,4434178840,87.1 Oak Spring Farm,24,3005580
53,Bialas Farms,74 Celery Avenue,New Hampton,New York,10958,http://www.bialasfarms.com,https://www.facebook.com/BialasFarms/,Kasha Bialas,farmer@bialasfarms.com,845-374-6941,88.9 Bialas Farms,36,3002919
54,Moon Valley Farm,1124 Greenway Road,Cockeysville,Maryland,21030,http://www.moonvalleyfarm.net/,https://www.facebook.com/moonvalleybaltimore/,Emma Jagoz,emma@moonvalleyfarm.net,410 207 0241,91.0 Moon Valley Farm,24,3005723
55,Windy Hill Family Farm,100 windy hill farm lane,Centreville,Maryland,21617,,,Liam Miller,windyhillfamilyfarm@gmail.com,(443) 687-9402 ,91.5 Windy Hill Family Farm,24,3011873
56,Peace and Carrots Farm,Johnson Road,Chester,New York,10918,http://www.peaceandcarrotsfarm.com,https://www.facebook.com/PeaceAndCarrotsFarm,Laura Nywening,peaceandcarrotscsa@gmail.com,845-913-6187,94.2 Peace and Carrots Farm,36,3003176
57,J&A Farm,PO box 304,Goshen ,New York,10924,www.jafarm.org,,Adina Bialas,jabialasfarm@live.com,,95.4 J&A Farm,36,3003089
58,Real Food Farm (a project of Civic Works),2445 E 32nd St.,Baltimore,Maryland,21218,realfoodfarm.org,https://www.facebook.com/rffpage,Shelley White,realfoodfarm@civicworks.com,(443) 531-8346,95.4 Real Food Farm (a project of Civic Works),24,3005423
59,Two Boots Farm,4226 Maple Grove Rd.,Hampstead,Maryland,21074,http://www.twobootsfarm.com/,https://www.facebook.com/twobootsfarm,Elisa Lane,twobootsfarm@gmail.com,215-740-6214,95.8 Two Boots Farm,24,3001644
60,Jubilee Back Forty,Hudson Rd across from Sposatos Landscaping,Milton,Delaware,19968,http://www.jubileebackforty.com/,,Keith & Lisa Wilhelm,fresh@jubileebackforty.com,(302) 542-9642,97.5 Jubilee Back Forty,10,3000555
61,Whitelock Community Farm CSA,900 Whitelock Street,Baltimore ,Maryland,21217,www.whitelockfarm.org,https://www.facebook.com/whitelockcommunityfarm,Alison Worman,farmer@whitelockfarm.org,410-205-6572,97.5 Whitelock Community Farm CSA,24,3005470
62,Yeehaw Farm Whole Diet CSA,51 Rohrer Drive,Duncannon,Pennsylvania,17020,www.yeehawfarms.com,https://www.facebook.com/pages/Yeehaw-Farm/179809875371755,Yeehaw Farm,yeehawfarm@yahoo.com,717-834-9667,97.9 Yeehaw Farm Whole Diet CSA,42,3005461
63,The Multi-Farm Meat CSA,678 Cochecton Tpke,Tyler Hill,Pennsylvania,18469,www.twinbrookfarmsandlivestock.com,https://www.facebook.com/TwinBrookFarms,Cassilyn Schweighofer,cms346@cornell.edu,5702244381,102.1 The Multi-Farm Meat CSA,42,3005569
64,Evermore Farm,150 Rockland Road,Westminster,Maryland,21158,www.evermorefarm.com,https://www.facebook.com/EvermoreFarm,Ginger Myers,ginger@evermorefarm.com,443-398-6548,103.8 Evermore Farm,24,3001564
65,"Chestnut Creek Farm, LLC",3610 Baker Road,Westminster,Maryland,21157,www.chestnutcreekfarm.com,https://www.facebook.com/chestnutcreekfarm,Jan and Jeff White,chestnutcreekfarm@gmail.com,410-259-3023,"104.3 Chestnut Creek Farm, LLC",24,3001546
66,North Mountain Pastures,201 Cold Storage Rd,Newport,Pennsylvania,17074,www.NorthMountainPastures.com,https://www.facebook.com/NorthMountainPastures?ref=stream&ws&nr&fref=nf,Brooks Miller,brooks@northmountainpastures.com,7174973496,104.5 North Mountain Pastures,42,3005473
67,Earth Spring Farm,366 Stought Road,Carlisle,Pennsylvania,17015,http://www.earthspringcsa.com,https://www.facebook.com/pages/Earth-Spring-Farm/190463371472,Mike Nolan,earthspringcsa@gmail.com,717-805-7778,104.6 Earth Spring Farm,42,3003847
68,Orchard Country  Produce and Fruit Farm,1410 Goodyear Rd.,Gardners,Pennsylvania,17324,www.orchardcountryproduce.com,https://www.facebook.com/orchardcountryproduce,Gregg Keckler,ocp@orchardcountryproduce.com,717-486-4653,105.8 Orchard Country  Produce and Fruit Farm,42,3003963
69,Piney Mountain Orchard,197 Coon Road,Gardners,Pennsylvania,17324,pineymountainorchard.com,https://www.facebook.com/pineymountain,Megan Rulli,meganrulli@gmail.com,717-514-4256,105.8 Piney Mountain Orchard,42,3003976
70,Hilltop Hanover Farm & Environmental Center,1271 Hanover Street,Yorktown Heights,New York,10598,www.hilltophanoverfarm.org,https://www.facebook.com/hilltophanoverfarm/,Lucille Munz,Lucille@hilltophanoverfarm.org,9149622368,106.1 Hilltop Hanover Farm & Environmental Center,36,3005699
71,Blades Orchard at Friendship Farms,4822 Preston Road,Federalsburg,Maryland,21632,bladesorchard@bladesorchard.com,https://www.facebook.com/bladesorchard,Lynda Blades,bladesorchard@bladesorchard.com,410-829-0334,107.0 Blades Orchard at Friendship Farms,24,3001535
72,Glynwood CSA,Glynwood Rd,Cold Spring,New York,10516,http://www.glynwood.org,https://www.facebook.com/glynwoodorg,Jarret Nelson,jnelson@glynwood.org,845-265-3338 ext 131,107.5 Glynwood CSA,36,3003031
73,Harford Farm and Flower Market,p. o. box 128,Harford,Pennsylvania,18823,http://harfordfarmpa.com/,https://www.facebook.com/pages/Harford-Farm-and-Flower-Market/322825071642?fref=ts,Judy and Geof Smeltzer,harfordfarm@gmail.com,570-434-2592,112.4 Harford Farm and Flower Market,42,3003889
74,Gorman Farms / CSA,10151 Gorman Rd,Laurel,Maryland,20723,https://gormanfarmscsa.com/,https://www.facebook.com/gormanproducefarm,Dave Liker,info@gormanfarmscsa.com,3019088063,114.4 Gorman Farms / CSA,24,3012954
75,Pheasant Hill Farm,4755 Buffalo Rd,Mount Airy,Maryland,21771,,,Marjorie Satterlee,msatter195@aol.com,410-215-7173,117.0 Pheasant Hill Farm,24,3001609
76,Simpaug Farms,38C Grove Street,Ridgefield,Connecticut,6877,http://www.simpaugfarms.com/,https://www.facebook.com/simpaugfarms/,Megan Robertson,info@simpaugfarms.com,203-984-7289,117.8 Simpaug Farms,9,3010746
77,Village Acres Farm & FoodShed,229 Cuba Mills Road,Mifflintown,Pennsylvania,17059,www.villageacresfarm.com,www.facebook.com/villageacres,Hannah Smith-Brubaker,hannah@villageacresfarm.com,717-436-9477,117.8 Village Acres Farm & FoodShed,42,3005687
78,SPACE on Ryder Farm CSA,406 Starr Ridge Road,Brewster,New York,10509,www.spaceonryderfarm.org/farm,https://www.facebook.com/SPACEonryderfarm/,Allyson Davis,csa@spaceonryderfarm.org,6468338159,119.6 SPACE on Ryder Farm CSA,36,3011891
79,Stony Branch Growers,9910 4 Points Rd,Rocky Ridge,Maryland,21778,www.stonybranchgrowers.com,https://www.facebook.com/pages/Stony-Branch-Growers/290522301074318,Alan Brauer,stonybranchgrowers@gmail.com,301-788-1498,119.9 Stony Branch Growers,24,3001628
80,Fishkill Farms CSA,9 Fishkill Farm Rd,Hopewell Junction,New York,12533,http://www.fishkillfarms.com/,https://www.facebook.com/fishkillfarms/,Fishkill Farms,csa@fishkillfarms.com,8457658587,120.7 Fishkill Farms CSA,36,3011824
81,Root 'N Roost Farm,64 Mineral Springs Road,Livingston Manor,New York,12758,www.rootnroost.com,https://www.facebook.com/RootnRoostFarm,Sean and Cheyenne Zigmund,info@rootnroost.com,845-292-9126,121.3 Root 'N Roost Farm,36,3003215
82,Huguenot St Farm,205 Huguenot St,New Paltz,New York,12561,Huguenotfarm.com,https://www.facebook.com/pages/Huguenot-Farm-CSA/178393065539753,Gavin Rinkor,gavin@huguenotfarm.com,8454192164,121.7 Huguenot St Farm,36,3003080
83,Healthway Farms,740 South Street,Highland,New York,12528,healthwayfarms.wordpress.com,https://www.facebook.com/HealthwayFarmsCSA,Samantha Alicia,HealthwayFarmsCSA@gmail.com,8452045117,122.7 Healthway Farms,36,3003067
84,Cabin Creek Heritage Farm,18235 Clagett Landing Road,Upper Marlboro,Maryland,20774,www.cabincreekheritagefarm.com,www.facebook.com/cabincreekheritagefarm,Amanda Hill,amanda@cabincreekheritagefarm.com,301-430-0170,122.7 Cabin Creek Heritage Farm,24,3005547
85,Hemlock Creek CSA ,1944 Stevens Point Rd,Susquehanna,Pennsylvania,18847,http://www.hemlockcreekcsa.com,https://www.facebook.com/hemlockcreekcsa,Stephanie Roberts,hemlockcreekcsa@gmail.com,570-727-3046,122.9 Hemlock Creek CSA ,42,3003894
86,Shadows of Catoctin Farm,6517 Fish Hatchery Rd,Thurmont,Maryland,21788,www.shadowsofcatoctinfarm.com,https://www.facebook.com/pages/Shadows-of-Catoctin-Farm/481500495244345,Sally Heber,shadowsofcatoctinfarm@mindspring.com,3018983228,124.7 Shadows of Catoctin Farm,24,3005712
87,Poughkeepsie Farm Project,PO Box 3143,Poughkeepsie,New York,12603,http://www.farmproject.org,https://www.facebook.com/farmproject,Lee Anne Albritton,leeanne@farmproject.org,845-516-1100,125.5 Poughkeepsie Farm Project,36,3003189
88,HOG Farm,PO Box 256,Brookhaven,New York,11719,www.hamletorganicgarden.org,https://www.facebook.com/pages/Hamlet-Organic-Garden/106383082746526,Jill and Sean Pilger,mail@hamletorganicgarden.org,631-286-7068,127.1 HOG Farm,36,3003061
89,Citizens of Earth,12600 Piedmont Road,Clarksburg,Maryland,20871,thecitizensofearth.org,https://www.facebook.com/Citizens-of-Earth-466859626793595/,Michael Sheehan,citizens@thecitizensofearth.org,2404829109,127.7 Citizens of Earth,24,3005728
90,Neversink Farm,635 Claryville Road,Claryville,New York,12725,www.neversinkfarm.com,https://www.facebook.com/NeversinkFarm,Conor and Kate Crickmore,farmer@neversinkfarm.com,845-985-2519,128.0 Neversink Farm,36,3003156
91,Yesterdays Favorite Farm,9327 Gap Rd,Waynesboro,Pennsylvania,17268,www.yesterdaysfavoritefarm.com,https://www.facebook.com/yesterdaysfavorites,Kim Mullen,yesterday@innernet.net,717-658-2501,128.6 Yesterdays Favorite Farm,42,3005544
92,Catskill Cattle Co - Catskill Fresh CSA,96 Laurel Bank Ave,Deposit,New York,13754,http://www.catskillfresh.com,http://www.facebook.com/catskillcattle,Lonny Schaefer,lizz@catskillcattle.com,6074675762,130.0 Catskill Cattle Co - Catskill Fresh CSA,36,3005440
93,Spiritual Food CSA,4217 East West Hwy,Bethesda,Maryland,20814,www.spiritualfoodcsa.org,,Victor & Linette Landa,shantiyoga.sol@gmail.com,2406448413,130.3 Spiritual Food CSA,24,3010760
94,Chocolates and Tomatoes Farm,19722 Teakwood Cir,Germantown,Maryland,20874,www.chocolatesandtomatoes.com,www.facebook.com/Chocolates-and-Tomatoes-Farm-169936913209363,Mark a Mills,chocolatesandtomatoes@gmail.com,5712712686,130.4 Chocolates and Tomatoes Farm,24,3005600
95,Common Good City Farm,V Street NW between 2nd and 4th Streets NW,Washington ,District of Columbia,20001,http://commongoodcityfarm.org,https://www.facebook.com/CommonGoodCityFarm,Rachael Callahan,rachael@commongoodcityfarm.org,(202) 559-7513,131.0 Common Good City Farm,11,3005476
96,Royal Kings Farm,14400 Jones Lane,Darnestown,Maryland,20878,,,Katherine Goodier,secretary@ksciregistry.com,2405154791,131.6 Royal Kings Farm,24,3005677
97,4P Foods,"350 G Street SW, Unit N216",Washington,District of Columbia,20024,www.4pfoods.com,https://www.facebook.com/4pfoods,Tom McDougall,Tom@4PFoods.com,7037326664,132.5 4P Foods,11,3005482
98,Sycamore Spring Farm,6003 Elmer Derr Road,Frederick,Maryland,21703,www.sycamorespringfarm.org,https://www.facebook.com/SycamoreSpringFarm,Carol Rollman,sycamorespringfarm@gmail.com,301-788-6980,132.7 Sycamore Spring Farm,24,3001633
99,Solid Ground Farm,205 Hidden Valley Rd,Kingston,New York,12401,http://solidground.farm/,https://www.facebook.com/solidgroundfarmny/,Wes Hannah,solidgroundfarm@gmail.com,518-528-9382,135.3 Solid Ground Farm,36,3010752
100,Rocklands Farm,14525 Montevideo Rd,Poolesville,Maryland,20837,www.RocklandsFarmMD.com,https://www.facebook.com/pages/Rocklands-Farm/389193215655,Greg Glenn,info@rocklandsfarmmd.com,301-825-8075,137.9 Rocklands Farm,24,3001618
101,"Amalthea Ridge, LLC",9713 fringe tree rd.,Great Falls,Virginia,22066,www.amalthearidge.com,,Sarah Wehri,homestead@amalthearidge.com,5719694628,"138.4 Amalthea Ridge, LLC",51,3005733
102,Potomac Vegetable Farms,9627 Leesburg Pike,Vienna,Virginia,22182,www.potomacvegetablefarms.com,,Hana Newcomb,hana.newcomb@gmail.com,703 759 2119,140.0 Potomac Vegetable Farms,51,3005743
103,Zekiah farms LLC ,5235 bryantown rd,Waldorf ,Maryland,20601,Www.zekiahfarms,https://www.facebook.com/zekiahfarmsllc,David thorne,Dcthorne@icloud.com,240-216-4067,140.0 Zekiah farms LLC ,24,3005388
104,Massaro Farm CSA,41 Ford Road,Woodbridge,Connecticut,6525,www.massarofarm.org,https://www.facebook.com/MassaroCommunityFarm,Steve Munno,csa@massarofarmcsa.org,203-736-8618,140.4 Massaro Farm CSA,9,3000501
105,HuckleBerry Fresh,7 North St NE Apt 1,Leesburg ,Virginia,20176,https://huckleberryfresh.luluslocalfood.com/,www.facebook.com/HuckleBerryFresh,Sara Wotherspoon,HuckleBerryFreshVA@gmail.com,7037284407,141.4 HuckleBerry Fresh,51,3005526
106,Healthy Harvest Farm, 2423 Jacksonville Road,Bellefonte,Pennsylvania,16823,http://www.healthyharvestfarmcsa.com/,https://www.facebook.com/HealthyHarvestCSA,Sara Eckert and Dave Sandy,HHfarmCSA@hotmail.com,814-355-2842,141.8 Healthy Harvest Farm,42,3003893
107,East Brook Farm CSA,2253 County Rte 22,Walton,New York,13856,http://eastbrookfarm.com/,https://www.facebook.com/East-Brook-Farm-1668855173394534/,Sarah Williford,eastbrookcommunityfarm@gmail.com,607-865-5529,142.1 East Brook Farm CSA,36,3010768
108,Garden of Eve Organic Farm ,4558 Sound Ave,Riverhead,New York,11901,www.GardenofEveFarm.com,GardenofEve,Eve Kaplan-Walbrecht,farmer@gardenofevefarm.com,6317228777,143.3 Garden of Eve Organic Farm ,36,3011787
109,RO-JO FARMS ,327 Litchfield Tpke,Bethany,Connecticut,6524,WWW.RO-JOFARMS.COM,https://www.facebook.com/RoJoFarms,TOBY FISCHER,FARM@RO-JOFARMS.COM,2036541595,143.3 RO-JO FARMS ,9,3005429
110,Quarter Branch Farm, 40327 Quarter Branch Road,Lovettsville,Virginia,20180,www.quarterbranchfarm.com/,https://www.facebook.com/QuarterBranchFarm,,kevin@quarterbranchfarm.com,,143.8 Quarter Branch Farm,51,3004601
111,"Spring House Farm, LLC",37864 Long Lane,Lovettsville,Virginia,20180,SpringHouseFarmVA.com,https://www.facebook.com/SpringHouseFarm,Andrew Crush,springhousefarmva@gmail.com,703-728-6623,"143.8 Spring House Farm, LLC",51,3004622
112,"Sun One Organic Farm, LLC ",50 Maddox Road ,Bethlehem,Connecticut,6751,http://www.facebook.com/pages/Sun-One-Organic-Farm/141754712550613?,https://www.facebook.com/pages/Sun-One-Organic-Farm/141754712550613,Rob Maddox ,sun1organic@aol.com,203-266-7973,"144.5 Sun One Organic Farm, LLC ",9,3000541
113,Aliabaad Farm,4040 Mills Road,Sharpsburg,Maryland,21782,,https://www.facebook.com/aliabaad.farm,Ali Mohadjer,Ali@satways.com,301-432-6863,144.6 Aliabaad Farm,24,3001528
114,Star Hollow Farm,22620 Doyle Rd.,Three Springs,Pennsylvania,17264,www.starhollowfarm.com,,Randy Treichler,info@starhollowfarm.com,814-448-3223,146.8 Star Hollow Farm,42,3004023
115,Farmers Kitchen,PO Box 1386,Jamesport,New York,11947,farmerskitchens.com,farmerzkitchen,Emilie Zaweski,emilie@farmerskitchens.com,631-727-7044,147.3 Farmers Kitchen,36,3010761
116,Full Circus Farm,27 Mils Path,Pine Plains,New York,12567,https://fullcircusfarm.wordpress.com,https://www.facebook.com/fullcircusfarm,Mark Stonehill,fullcircusfarm@gmail.com,518-789-0025,148.1 Full Circus Farm,36,3011788
117,Plowshare Produce,12936 Greenwood Road,Huntingdon,Pennsylvania,16652,http://www.plowshareproduce.com,,Micah and Bethany Spicher Schonberg,plowshareproduce@yahoo.com,814-667-2756,149.3 Plowshare Produce,42,3003977
118,Browder's Birds Pastured Poultry,4050 Soundview Avenue ,Mattituck ,New York,11952,www.browdersbirds.com,https://www.facebook.com/BrowdersBirds,Holly Browder,holly@browdersbirds.com,631-477-6523,150.5 Browder's Birds Pastured Poultry,36,3002931
119,Laurel Ridge Farm,164 Wigwam Road,Litchfield,Connecticut,6759,www.lrgfb.com,,John Morosani,john@lrgfb.com,860-567-8122,150.6 Laurel Ridge Farm,9,3005528
120,Moon on the Mountain Farm,2927 Warm Springs Rd,Shenandoah Junction,West Virginia,25442,www.moononthemountain.com,,Patricia Stephenson,patricia@moononthemountain.com,3019084585,151.1 Moon on the Mountain Farm,54,3005352
121,Great Country Farms,18780 Foggy Bottom Rd,Bluemont,Virginia,20132,http://www.greatcountryfarms.com,https://www.facebook.com/greatcountryfarms,Mark and Kate Zurschmeide,CSA@greatcountryfarms.com,540-554-2073,151.7 Great Country Farms,51,3004551
122,Hearty Roots Community Farm,1830 Route 9,Germantown,New York,12526,http://www.heartyroots.com,http://www.facebook.com/heartyroots,Benjamin Shute,farm@heartyroots.com,845-943-8699,151.7 Hearty Roots Community Farm,36,3003068
123,Karl's Farm,5550 Stuckey Rd,Pisgah,Maryland,20640,http://Karls-Farm.com,https://www.facebook.com/Karls.Farm.CSA,Karl and Paula Wiegand,paula@karls-farm.com,301-743-7941,152.7 Karl's Farm,24,3001591
124,Lakeside Farm Stand,31 Lake Drive,Guilford ,Connecticut,6437,lakesidefarmstand.com,,Toni Schiano,Lakesidefarmstand@gmail.com,2034570152,152.7 Lakeside Farm Stand,9,3011858
125,Geremia Gardens ,1720 West street,Southington,Connecticut,6489,,,Mary Lou Geremia,geremiagardenes@yahoo.com,8606200332,156.4 Geremia Gardens ,9,3011860
126,Stoneledge Farm,359 Ross Ruland Road,South Cairo,New York,12482,www.stoneledge.farm,https://www.facebook.com/StoneledgeFarm#,Deborah Kavakos,stoneledgefarm@hotmail.com,518-622-3003,158.1 Stoneledge Farm,36,3005647
127,Day Spring Farm,21388 Steptoe Hill Rd ,Middleburg,Virginia,20117,Www.dayspringfarmva.com,https://www.facebook.com/dayspringfarmva/,Jessie Baker,Dayspring.farm@hotmail.com,540-687-6036,158.1 Day Spring Farm,51,3005724
128,Quail Hill Farm/Peconic Land Trust,PO Box 1776,Southampton,New York,11969,www.peconiclandtrust.org/quail_hill_farm.html,https://www.facebook.com/QuailHillFarm,Scott Chaskey,schaskey@peconiclandtrust.org,631-267-8492,158.8 Quail Hill Farm/Peconic Land Trust,36,3003196
129,Copper Hill Farm,3550 Mountain Rd.,Haymarket,Virginia,20169,,,Patricia Paris,paris@copperhillfarm.com,703-508-7500,159.3 Copper Hill Farm,51,3004517
130,Howling Flats Farm ,19 Raymond Avenue,North Canaan,Connecticut,6018,www.howlingflatsfarm.com,www.facebook.com/howlingflats,Kelley Babbin,howlingflatsfarm@gmail.com,8603798961,160.2 Howling Flats Farm ,9,3005738
131,Farm of Peace CSA,1212 Haven Ln,Warfordsburg,Pennsylvania,17267,http://www.farmofpeace.com,https://www.facebook.com/farmofpeace/,Matt Belmont,csa@farmofpeace.com,(717) 573-4722,161.3 Farm of Peace CSA,42,3010759
132,nook & cranny farm,424 harford rd,brooktondale,New York,14817,nookandcrannyfarm.com,https://www.facebook.com/NookAndCrannyFarm,robert tuori,btuori@gmail.com,607 539 6580,162.2 nook & cranny farm,36,3005433
133,Hawk Dance Farm,362 Rodman Road,Hillsdale,New York,12529,,https://www.facebook.com/hawkdancefarm,"Damon Clift, Diane Creed",hawkdancefarm@yahoo.com,518-325-1430,162.6 Hawk Dance Farm,36,3005462
134,Yellow House Farm,216 Arbutus St,Middletown,Connecticut,6457,www.yellowhousefarmct.com,,Jennifer Scott,yhf@yellowhousefarm.com,860-740-6761,162.7 Yellow House Farm,9,3011804
135,Yankey Farms,14841 Glenkirk Rd,Nokesville,Virginia,20181,www.yankeyfarms.com,https://www.facebook.com/yankeyfarms,James Yankey,sonjanjay@verizon.net,703-618-3782,162.9 Yankey Farms,51,3004645
136,Deep River Farms,362 West Elm Street,Deep River,Connecticut,6417,www.deepriverfarms.com,https://www.facebook.com/Deepriverfarms/,Kelly Angelini,farmer@deepriverfarms.com,8605989824,163.7 Deep River Farms,9,3005721
137,Hiddenview Farm ,165 Conrad ln,Earlton,New York,12058,www.hiddenviewfarmNY.com,www.facebook.com/hiddenviewfarms,Jessica Schwed,jessica.hiddenviewfarm@gmail.com,5182580283,163.8 Hiddenview Farm ,36,3011888
138,Cool Spring Farm LLC,950 Glebe Lane,Berryville,Virginia,22611,www.coolspringcsa.com,https://www.facebook.com/coolspringfarm,Mike Cassidy,mike@coolspringcsa.com,571-238-1931,163.9 Cool Spring Farm LLC,51,3004514
139,Hawthorne Valley Farm CSA,327 County Route 21C,Ghent,New York,12075,http://hawthornevalleyfarm.org/where-to-buy/community-supported-agriculture-csa/,https://www.facebook.com/HawthorneValleyFarm,Lucy Marston,farmadmin@hawthornevalleyfarm.org,518-672-7500 x257,164.9 Hawthorne Valley Farm CSA,36,3005507
140,Fatstock Farm,271 Hollow Road,Stuyvesant,New York,12173,www.fatstockfarm.com,https://www.facebook.com/fatstockfarm,John Agostinho,john@fatstockfarm.org,7187373773,166.8 Fatstock Farm,36,3002996
141,George Hall Farm,180 Farms Rd,Simsbury,Connecticut,6070,http://www.georgehallfarm.com,https://www.facebook.com/pages/George-Hall-Farm-Ogre-Farm/106720546028097,George Hall,georgehallfarm@att.net,860-658-9297,170.3 George Hall Farm,9,3000497
142,Deep River Farms 2016 Summer CSA,230 Shore Road,Old Lyme,Connecticut,6371,http://deepriverfarms.com/,https://www.facebook.com/Deepriverfarms/?fref=ts,Danielle Gallagher,dgallagher@simpsonhealthcare.com,860-598-9824,170.8 Deep River Farms 2016 Summer CSA,9,3005710
143,Katchkie Farm / Great Performances,34 Fischer Road,Kinderhook,New York,12106,katchkiefarm.com,https://www.facebook.com/pages/Katchkie-Farm/130428156986854,Amy Black,amy.black@katchkiefarm.com,212-337-6087,171.0 Katchkie Farm / Great Performances,36,3003097
144,Buried Treasures Organic Farm CSA,808 Clark St. Ext.,Groton,New York,13073,www.buriedtreasuresorganicfarm.com,www.facebook.com/btofarm,Mary McGarry-Newman,buriedtreasuresorganicfarm@yahoo.com,607-220-4044,176.5 Buried Treasures Organic Farm CSA,36,3005732
145,Fox Creek Farm,182 Fox Creek Farm Rd,Schoharie,New York,12157,www.foxcreekfarmcsa.com,https://www.facebook.com/pages/fox-creek-farm-csa,Raymond Luhrman,foxcreekfarmcsa@earthlink.net,518-872-2375,177.3 Fox Creek Farm,36,3003009
146,Plowbreak Farm,6200 Deer Run Lane,Trumansburg,New York,14886,www.plowbreakfarm.com,https://www.facebook.com/plowbreakfarm,Kara Cusolito,plowbreakfarm@gmail.com,508-274-1375,177.4 Plowbreak Farm,36,3003186
147,Frosty Morning Farm,4211 State Route 13,Truxton,New York,13158,,,Alison Frost,frostymorningfarm@yahoo.com,607-842-6799,178.0 Frosty Morning Farm,36,3005441
148,Patroon Land Farm,132 Ketcham Road,Voorheesville,New York,12186,http://www.regionalfoodbank.net,https://www.facebook.com/PatroonLandFarm,Mark Weinheimer,mrw601@gmail.com,518-339-5726,180.0 Patroon Land Farm,36,3003174
149,Ever Green Farm,5942 Old Lake Road,Rock Stream,New York,14878,http://www.evergreenfarmonline.com,https://www.facebook.com/pages/Ever-Green-Farm-CSA/266217320186934,Joe & Joely Zerbey,Info@EverGreenFarmOnline.com,607 243-3613,181.1 Ever Green Farm,36,3005749
150,Hickory Ridge Natural Harvest CSA,668 Strongs Road,Irvona,Pennsylvania,16656,http://www.hrnaturalharvest.com/,,Dennis Nebgen,hrnhcsa@gmail.com,814-505-5274,182.0 Hickory Ridge Natural Harvest CSA,42,3005426
151,Abode Farm CSA,5 Abode Road,New Lebanon,New York,12125,www.abodefarmcsa.com,facebook.com/abodefarmcsa,Evan Thaler,abodecsa@gmail.com,518-794-9776,184.7 Abode Farm CSA,36,3002899
152,Bart & Sarah's at Great Oak Farm,16034 Little Fork Church Rd,Rixeyville,Virginia,22737,http://www.bartandsarahs.com,https://www.facebook.com/bartandsarahs,Sarah Shepard Mobius,sarah@bartandsarahs.com,540-687-1265,185.2 Bart & Sarah's at Great Oak Farm,51,3004486
153,Dizzy Lizzie's Farm,3823 Sanderson Road,Erieville,New York,13061,www.dizzylizziesfarm.com,https://www.facebook.com/dizzylizziesfarm?ref=hl,Elizabeth Blackburn,lizzie@dizzylizziesfarm.com,315-662-7565,187.0 Dizzy Lizzie's Farm,36,3005524
154,Miller Farms Market,12101 Orange Plank Rd,Locust Grove Va,Virginia,22508,millerfarmsmarket.com,miller farms market,Ben Miller,info@millerfarmsmarket.com,540 850 5009,187.5 Miller Farms Market,51,3005625
155,Daring Drake Farm,3046 CR 138,Ovid,New York,14521,www.daringdrake.com,,Shannon O'Connor,daringdrake@zoom-dsl.com,607-532-4956,190.5 Daring Drake Farm,36,3002976
156,Crosswinds Farm & Creamery,6762 Log City Rd,Ovid,New York,14521,www.crosswindsfarmcreamery.com,https://www.facebook.com/pages/Crosswinds-Farm-Creamery/79559668108,Sarah VanOrden,crosswindsfarmcreamery@gmail.com,607-327-0363,190.5 Crosswinds Farm & Creamery,36,3003295
157,Cobblestone Farm,87 Bassetts Bridge Rd,Mansfield Center,Connecticut,6250,https://cobblestonefarmcsa.com/,https://www.facebook.com/cobblestonefarmcsa/,Diane Dorfer,dianedorfer@gmail.com,860-423-8305,191.0 Cobblestone Farm,9,3011801
158,Red Shirt Farm,60 Williamstown Road,Lanesborough,Massachusetts,1237,https://www.redshirtfarm.com/csa/,,Jim Schultz,jim@redshirtfarm.com,4138229250,191.5 Red Shirt Farm,25,3011803
159,Hillside farm,po box 326,nelliston,New York,13410,,,,Jplipiec@gmail.com,5183329143,192.0 Hillside farm,36,3011795
160,Lansing Farm Market ,204 Lishakill Rd,Schenectady,New York,12309,www.lansingfarmmarket.com,https://www.facebook.com/LansingFarmMarket,Jessica Lansing,LansingFarmMarket@yahoo.com,518-464-0889,192.9 Lansing Farm Market ,36,3003113
161,Edible Uprising Farm,40 Springwood Manor,Troy ,New York,12180,https://www.edibleuprisingfarm.com,https://facebook.com/edibleuprisingfarm/,Ben Stein,Info@edibleuprisingfarm.com,303-817-6084,194.9 Edible Uprising Farm,36,3011875
162,H and H Farms,161 Seven Fountains Road,Fort Valley,Virginia,22652,www.handhfarmsva.com,www.facebook.com/HandHFarmsVirginia,Taylor Bridges,handhfarmsva@gmail.com,5406929808,195.0 H and H Farms,51,3011872
163,Crabapple Farm,100 Bryant Street PO Box 263,Chesterfield,Massachusetts,1012,http://crabapplefarm.org,,Tevis and Rachel Robertson-Goldberg,crabapplefarm@verizon.net,413-296-0310,195.4 Crabapple Farm,25,3001433
164,Green Acres Fruit Farm,868 Main Street,Wilbraham,Massachusetts,1095,greenacresfruitfarm@outlook.com,Green Acres Fruit Farm,Kathleen A Smedberg,greenacresfruitfarm@outlook.com,4135963016,196.1 Green Acres Fruit Farm,25,3005572
165,KDCrop Farms,275 South Bear Hill Rd.,CHAPLIN,Connecticut,6235,http://kdcropfarms.weebly.com,,Kelly Caisse,kdcropfarms@gmail.com,203-592-4939,196.2 KDCrop Farms,9,3011811
166,Jones Family Farm,753 Caldwell Rd,Herkimer,New York,13350,www.anotherjonesfamilyfarm.com,https://www.facebook.com/pages/Jones-Family-Farm/268448737232,Suzie Jones,info@anotherjonesfamilyfarm.com,315-866-4164,196.5 Jones Family Farm,36,3003093
167,Russo's Roots LLC,289 North Society Rd,Canterbury ,Connecticut,6331,Www.russosroots@gmail.com,https://www.facebook.com/russosrootsfarm/,Libby Tarleton,Russosroots@gmail.com,8605569325,196.8 Russo's Roots LLC,9,3012941
168,Connecticut Farm to Table Cooperative,140 Beffa Road,Stafford Springs,Connecticut,6076,http://www.ctfarmtable.com,https://www.facebook.com/ctfarmtable,Chris Joseph,ctfarmtable@gmail.com,860-684-1311,197.4 Connecticut Farm to Table Cooperative,9,3000488
155,Dayspring Farm, 942 Buena Vista Road,Cologne,Virginia,23181,www.dayspringfarm.org,,Charlie and Miriam Maloney,dayspringfarm@aol.com,804-785-9401,193.9 Dayspring Farm,51,3004524
157,"Brightwood Vineyard and Farm, LLC",1202 Lillards Ford Road,Brightwood,Virginia,22715,www.brightwoodvineyardandfarm.com,https://www.facebook.com/BrightwoodVineyardandFarm,Susan Vidal,svidal@hughes.net,540-948-6845,"195.5 Brightwood Vineyard and Farm, LLC",51,3004501
159,Mattawoman Creek Farms,"4103 Barlow Creek Lane, PO Box 689",Eastville,Virginia,23347,http://www.mattawomancreekfarms.com/,https://www.facebook.com/MattawomanCreekFarms,Rick Felker,organic@mattawomancreekfarms.com,757-678-5731,197.0 Mattawoman Creek Farms,51,3004576
